STARLINK-35249          
1 65901U 25224V   26068.24124806  .00043600  00000+0  14757-2 0  9993
2 65901  53.1622  13.5661 0000733  86.4322 273.6763 15.30196702 24781
KUIPER-00222            
1 67782U 26030U   26068.67636257  .00055223  00000+0  17317-2 0  9992
2 67782  51.8817 219.7147 0012800  40.1845 320.0084 15.32445377  5087
