[{"OBJECT_NAME":"STARLINK-35249","OBJECT_ID":"2025-224V","EPOCH":"2026-03-09T05:47:23.832384","MEAN_MOTION":15.30196702,"ECCENTRICITY":7.337e-5,"INCLINATION":53.1622,"RA_OF_ASC_NODE":13.5661,"ARG_OF_PERICENTER":86.4322,"MEAN_ANOMALY":273.6763,"EPHEMERIS_TYPE":0,"CLASSIFICATION_TYPE":"U","NORAD_CAT_ID":65901,"ELEMENT_SET_NO":999,"REV_AT_EPOCH":2478,"BSTAR":0.00147574,"MEAN_MOTION_DOT":0.000436,"MEAN_MOTION_DDOT":0},{"OBJECT_NAME":"KUIPER-00222","OBJECT_ID":"2026-030U","EPOCH":"2026-03-09T16:13:57.726048","MEAN_MOTION":15.32445377,"ECCENTRICITY":0.00128002,"INCLINATION":51.8817,"RA_OF_ASC_NODE":219.7147,"ARG_OF_PERICENTER":40.1845,"MEAN_ANOMALY":320.0084,"EPHEMERIS_TYPE":0,"CLASSIFICATION_TYPE":"U","NORAD_CAT_ID":67782,"ELEMENT_SET_NO":999,"REV_AT_EPOCH":508,"BSTAR":0.0017317201,"MEAN_MOTION_DOT":0.00055223,"MEAN_MOTION_DDOT":0}]
